[{"OBJECT_NAME":"STARLINK-4302","OBJECT_ID":"2022-099S","EPOCH":"2026-03-09T21:41:08.387520","MEAN_MOTION":15.01272148,"ECCENTRICITY":0.00052174,"INCLINATION":97.6015,"RA_OF_ASC_NODE":190.4161,"ARG_OF_PERICENTER":196.9342,"MEAN_ANOMALY":163.1709,"EPHEMERIS_TYPE":0,"CLASSIFICATION_TYPE":"U","NORAD_CAT_ID":53481,"ELEMENT_SET_NO":999,"REV_AT_EPOCH":19601,"BSTAR":0.00064692591,"MEAN_MOTION_DOT":8.265e-5,"MEAN_MOTION_DDOT":0},{"OBJECT_NAME":"IRIDIUM 33 DEB","OBJECT_ID":"1997-051ACD","EPOCH":"2026-02-15T04:06:14.442336","MEAN_MOTION":15.0282309,"ECCENTRICITY":0.00183243,"INCLINATION":86.3384,"RA_OF_ASC_NODE":302.6959,"ARG_OF_PERICENTER":121.5358,"MEAN_ANOMALY":29.3036,"EPHEMERIS_TYPE":0,"CLASSIFICATION_TYPE":"U","NORAD_CAT_ID":46971,"ELEMENT_SET_NO":999,"REV_AT_EPOCH":65196,"BSTAR":0.0024316654,"MEAN_MOTION_DOT":0.00032805,"MEAN_MOTION_DDOT":0}]
